OBJECT_NAME,OBJECT_ID,EPOCH,MEAN_MOTION,ECCENTRICITY,INCLINATION,RA_OF_ASC_NODE,ARG_OF_PERICENTER,MEAN_ANOMALY,EPHEMERIS_TYPE,CLASSIFICATION_TYPE,NORAD_CAT_ID,ELEMENT_SET_NO,REV_AT_EPOCH,BSTAR,MEAN_MOTION_DOT,MEAN_MOTION_DDOT
POLYITAN-1,2014-033AJ,2026-07-10T16:05:53.973312,15.34111365,.0008191,98.0946,220.1661,77.9163,282.2995,0,U,40042,999,65719,.40997E-3,.13465E-3,0
TIGRISAT,2014-033AK,2026-07-10T08:37:12.736416,14.85241074,.00490548,97.7857,340.8441,0.2988,359.8248,0,U,40043,999,64906,.12097154E-3,.1004E-4,0
AEROCUBE 6A,2014-033AM,2026-07-09T17:33:14.827104,14.98308817,.00369154,97.7235,357.4445,299.7682,59.9870,0,U,40045,999,64999,.28750307E-3,.3408E-4,0
AEROCUBE 6B,2014-033AN,2026-07-10T05:53:35.084544,14.99771692,.00379448,97.7203,357.7928,287.6201,72.0880,0,U,40046,999,65021,.25889665E-3,.3186E-4,0
CANX-4,2014-034C,2026-07-10T10:57:21.776256,14.81306260,.00115745,98.3092,67.6207,299.7507,60.2552,0,U,40055,999,64797,.76449036E-4,.539E-5,0
CANX-5,2014-034D,2026-07-11T03:07:24.284352,14.81324107,.0011539,98.3093,68.3639,297.5826,62.4213,0,U,40056,999,63888,.65216E-4,.452E-5,0
UKUBE-1,2014-037F,2026-07-09T18:36:46.096128,15.13896142,.000324,98.4244,196.4263,97.6551,262.5046,0,U,40074,999,65197,.31609155E-3,.5644E-4,0
BRITE-PL2 (HEWELIUSZ),2014-049B,2026-07-11T00:07:58.618848,14.94679368,.0014696,97.9116,304.1924,35.8483,324.3720,0,U,40119,999,64500,.11136E-3,.115E-4,0
AEROCUBE 5C,2015-058B,2026-07-09T00:42:20.006208,14.91551276,.01319227,64.7653,194.6344,54.7863,306.5516,0,U,40965,999,36891,.17146698E-3,.1855E-4,0
AEROCUBE 7,2015-058C,2026-07-09T08:44:24.844416,14.95877670,.01216369,64.7605,175.3442,52.9912,308.2259,0,U,40966,999,36927,.27172614E-3,.3354E-4,0
FOX-1A (AO-85),2015-058D,2026-07-11T00:41:55.149792,14.91072604,.0132046,64.7731,204.8837,47.3799,313.8357,0,U,40967,999,11712,.15193E-3,.1601E-4,0
SINOD-D 1,2015-058E,2026-07-10T09:49:00.524640,14.96059723,.01206742,64.7732,186.1818,43.9846,317.0794,0,U,40968,999,12013,.25966039E-3,.3205E-4,0
SNAP-3 ALICE,2015-058G,2026-07-10T12:38:02.000256,15.66308605,.0023802,64.7493,22.8906,351.6430,8.4319,0,U,40970,999,12053,.11218E-2,.120022E-2,0
LMRST-SAT,2015-058H,2026-07-10T07:40:18.931584,14.90686200,.01335468,64.7738,203.4710,49.6543,311.6141,0,U,40971,999,11700,.16605514E-3,.1755E-4,0
SNAP-3 EDDIE,2015-058J,2026-07-11T04:47:34.738368,15.67747978,.0024977,64.7399,11.0848,354.0835,6.0015,0,U,40972,999,12278,.95146E-3,.1079E-2,0
PROPCUBE 3,2015-058K,2026-07-10T23:13:07.716288,14.94394319,.0125444,64.7665,178.2288,50.6116,310.6027,0,U,40973,999,11835,.20942E-3,.2459E-4,0
BISONSAT,2015-058L,2026-07-11T04:03:27.787104,15.16860579,.0081716,64.7586,96.0683,37.5651,323.1143,0,U,40974,999,11925,.43798E-3,.9235E-4,0
SNAP-3 JIMI,2015-058M,2026-07-10T06:52:56.781984,15.02565119,.01074153,64.7635,146.6720,46.2352,314.7592,0,U,40975,999,11769,.36254612E-3,.5297E-4,0
PROPCUBE 1 (FLORA),2015-058N,2026-07-10T08:42:41.808960,14.89314103,.01321281,64.7729,223.4027,51.9307,309.3637,0,U,40976,999,11971,.13778133E-3,.1364E-4,0
SINOD-D 3,2015-058P,2026-07-11T00:04:13.088064,14.94152820,.0120732,64.7702,201.4415,48.7565,312.3875,0,U,40977,999,11831,.19615E-3,.2249E-4,0
RAVAN,2016-067B,2026-07-09T14:51:30.576096,15.57028665,.00016998,97.9855,82.8186,255.2675,104.8390,0,U,41849,999,53118,.62254762E-3,.45047E-3,0
CELTEE 1,2016-067C,2026-07-11T02:33:53.695008,15.19916228,.0002193,98.0649,60.3057,115.6959,244.4500,0,U,41850,999,52951,.15905E-3,.3339E-4,0
OPTICUBE 04,2016-067D,2026-07-10T09:49:37.177248,15.09759786,.00164844,98.0683,44.9036,43.2384,317.0135,0,U,41851,999,52867,.12308193E-3,.192E-4,0
AEROCUBE 8D,2016-067E,2026-07-08T14:50:07.137888,15.24707647,.00048788,98.0658,61.4206,72.9126,287.2644,0,U,41852,999,52933,.20032197E-3,.4874E-4,0
AEROCUBE 8C,2016-067F,2026-07-11T01:37:02.108064,15.24986658,.0004677,98.0531,61.2545,357.4690,2.6521,0,U,41853,999,52970,.18565E-3,.4549E-4,0
CORVUS BC2,2017-042X,2026-07-10T07:28:21.992160,15.06442373,.00138712,97.4090,351.7667,39.1681,321.0548,0,U,42846,999,49054,.14632989E-3,.2103E-4,0
CORVUS BC1,2017-042Y,2026-07-10T16:50:45.602880,15.06607650,.0012081,97.4119,352.9716,16.3956,343.7660,0,U,42847,999,49063,.1141E-3,.1633E-4,0
MAKERSAT 0,2017-073D,2026-07-11T03:26:39.954336,15.32906919,.010518,97.4598,74.8581,186.6952,173.2893,0,U,43016,999,47013,.33352E-3,.1257E-3,0
SIRION PATHFINDER-2,2018-099B,2026-07-09T10:41:18.198528,15.14748987,.00078871,97.4244,238.9746,212.4979,147.5769,0,U,43759,999,41599,.1650276E-3,.2996E-4,0
CORVUS BC4,2018-099K,2026-07-11T01:40:33.597984,15.12681527,.000653,97.4058,234.3515,278.9204,81.1287,0,U,43767,999,41601,.16777E-3,.2873E-4,0
